start=new Date('2023-01-10T00:00:00.000Z').valueOf();
sats=[{"ECCENTRICITY":"0.00024890","TIME_SYSTEM":"UTC","FILE":"3737281","CENTER_NAME":"EARTH","MEAN_MOTION_DDOT":"0.0000000000000","MEAN_ANOMALY":"320.1410","APOAPSIS":"548.962","REF_FRAME":"TEME","OBJECT_ID":"2021-040BM","BSTAR":"-0.00003108300000","GP_ID":"222574438","TLE_LINE2":"2 48487  53.0564 346.7034 0002489  39.9762 320.1410 15.06391916 93545","PERIAPSIS":"545.515","RCS_SIZE":"LARGE","OBJECT_NAME":"STARLINK-2494","COUNTRY_CODE":"US","RA_OF_ASC_NODE":"346.7034","ELEMENT_SET_NO":"999","MEAN_MOTION":"15.06391916","MEAN_MOTION_DOT":"-0.00000745","ARG_OF_PERICENTER":"39.9762","MEAN_ELEMENT_THEORY":"SGP4","OBJECT_TYPE":"PAYLOAD","INCLINATION":"53.0564","TLE_LINE1":"1 48487U 21040BM  23009.66840482 -.00000745  00000-0 -31083-4 0  9997","PERIOD":"95.593","CLASSIFICATION_TYPE":"U","NORAD_CAT_ID":"48487","SITE":"AFETR","EPHEMERIS_TYPE":"0","SEMIMAJOR_AXIS":"6925.373","EPOCH":"2023-01-09T16:02:30.176448","REV_AT_EPOCH":"9354","DECAY_DATE":null,"LAUNCH_DATE":"2021-05-09"},{"TLE_LINE1":"1 48553U 21041A   23009.44632686  .00001157  00000-0  96582-4 0  9994","PERIOD":"95.592","CLASSIFICATION_TYPE":"U","NORAD_CAT_ID":"48553","SITE":"AFETR","SEMIMAJOR_AXIS":"6925.336","EPOCH":"2023-01-09T10:42:42.640704","EPHEMERIS_TYPE":"0","REV_AT_EPOCH":"9108","DECAY_DATE":null,"LAUNCH_DATE":"2021-05-15","ELEMENT_SET_NO":"999","MEAN_MOTION":"15.06404010","MEAN_MOTION_DOT":"0.00001157","ARG_OF_PERICENTER":"49.1746","MEAN_ELEMENT_THEORY":"SGP4","OBJECT_TYPE":"PAYLOAD","INCLINATION":"53.0549","OBJECT_ID":"2021-041A","BSTAR":"0.00009658200000","GP_ID":"222543590","TLE_LINE2":"2 48553  53.0549 277.7016 0002021  49.1746 310.9418 15.06404010 91084","PERIAPSIS":"545.802","RCS_SIZE":"LARGE","COUNTRY_CODE":"US","RA_OF_ASC_NODE":"277.7016","OBJECT_NAME":"STARLINK-2063","TIME_SYSTEM":"UTC","ECCENTRICITY":"0.00020210","FILE":"3737263","CENTER_NAME":"EARTH","MEAN_MOTION_DDOT":"0.0000000000000","MEAN_ANOMALY":"310.9418","REF_FRAME":"TEME","APOAPSIS":"548.601"},{"TLE_LINE2":"2 48554  53.0542 277.6777 0001310  75.1561 284.9573 15.06394649 91083","RCS_SIZE":"LARGE","PERIAPSIS":"546.323","OBJECT_NAME":"STARLINK-2139","COUNTRY_CODE":"US","RA_OF_ASC_NODE":"277.6777","BSTAR":"0.00004709000000","GP_ID":"222541838","OBJECT_ID":"2021-041B","MEAN_ANOMALY":"284.9573","APOAPSIS":"548.137","REF_FRAME":"TEME","FILE":"3737263","CENTER_NAME":"EARTH","MEAN_MOTION_DDOT":"0.0000000000000","TIME_SYSTEM":"UTC","ECCENTRICITY":"0.00013100","SITE":"AFETR","EPHEMERIS_TYPE":"0","SEMIMAJOR_AXIS":"6925.365","EPOCH":"2023-01-09T10:53:20.399712","LAUNCH_DATE":"2021-05-15","DECAY_DATE":null,"REV_AT_EPOCH":"9108","NORAD_CAT_ID":"48554","PERIOD":"95.592","CLASSIFICATION_TYPE":"U","TLE_LINE1":"1 48554U 21041B   23009.45370833  .00000420  00000-0  47090-4 0  9991","INCLINATION":"53.0542","OBJECT_TYPE":"PAYLOAD","ARG_OF_PERICENTER":"75.1561","MEAN_ELEMENT_THEORY":"SGP4","ELEMENT_SET_NO":"999","MEAN_MOTION":"15.06394649","MEAN_MOTION_DOT":"0.00000420"},{"NORAD_CAT_ID":"48555","SITE":"AFETR","EPHEMERIS_TYPE":"0","SEMIMAJOR_AXIS":"6925.345","EPOCH":"2023-01-09T17:56:37.840416","DECAY_DATE":null,"LAUNCH_DATE":"2021-05-15","REV_AT_EPOCH":"9143","TLE_LINE1":"1 48555U 21041C   23009.74766019  .00000971  00000-0  84118-4 0  9992","PERIOD":"95.592","CLASSIFICATION_TYPE":"U","OBJECT_TYPE":"PAYLOAD","INCLINATION":"53.0547","ELEMENT_SET_NO":"999","MEAN_MOTION_DOT":"0.00000971","MEAN_MOTION":"15.06401223","ARG_OF_PERICENTER":"45.6438","MEAN_ELEMENT_THEORY":"SGP4","TLE_LINE2":"2 48555  53.0547 286.3658 0002313  45.6438 314.4740 15.06401223 91434","PERIAPSIS":"545.608","RCS_SIZE":"LARGE","OBJECT_NAME":"STARLINK-2145","COUNTRY_CODE":"US","RA_OF_ASC_NODE":"286.3658","OBJECT_ID":"2021-041C","BSTAR":"0.00008411800000","GP_ID":"222581612","MEAN_ANOMALY":"314.4740","REF_FRAME":"TEME","APOAPSIS":"548.812","ECCENTRICITY":"0.00023130","TIME_SYSTEM":"UTC","FILE":"3737598","CENTER_NAME":"EARTH","MEAN_MOTION_DDOT":"0.0000000000000"},{"INCLINATION":"53.0559","OBJECT_TYPE":"PAYLOAD","MEAN_ELEMENT_THEORY":"SGP4","ARG_OF_PERICENTER":"39.7895","MEAN_MOTION":"15.06407676","MEAN_MOTION_DOT":"0.00001194","ELEMENT_SET_NO":"999","DECAY_DATE":null,"REV_AT_EPOCH":"9094","LAUNCH_DATE":"2021-05-15","EPHEMERIS_TYPE":"0","SEMIMAJOR_AXIS":"6925.325","EPOCH":"2023-01-09T11:18:32.137920","SITE":"AFETR","NORAD_CAT_ID":"48556","CLASSIFICATION_TYPE":"U","PERIOD":"95.592","TLE_LINE1":"1 48556U 21041D   23009.47120530  .00001194  00000-0  99034-4 0  9996","REF_FRAME":"TEME","APOAPSIS":"548.613","MEAN_ANOMALY":"320.3245","MEAN_MOTION_DDOT":"0.0000000000000","CENTER_NAME":"EARTH","FILE":"3737263","ECCENTRICITY":"0.00020550","TIME_SYSTEM":"UTC","COUNTRY_CODE":"US","OBJECT_NAME":"STARLINK-2151","RA_OF_ASC_NODE":"287.6018","TLE_LINE2":"2 48556  53.0559 287.6018 0002055  39.7895 320.3245 15.06407676 90945","PERIAPSIS":"545.767","RCS_SIZE":"LARGE","GP_ID":"222543340","BSTAR":"0.00009903400000","OBJECT_ID":"2021-041D"},{"APOAPSIS":"548.770","REF_FRAME":"TEME","MEAN_ANOMALY":"317.0161","MEAN_MOTION_DDOT":"0.0000000000000","CENTER_NAME":"EARTH","FILE":"3737263","ECCENTRICITY":"0.00021830","TIME_SYSTEM":"UTC","COUNTRY_CODE":"US","OBJECT_NAME":"STARLINK-2155","RA_OF_ASC_NODE":"279.6513","RCS_SIZE":"LARGE","TLE_LINE2":"2 48557  53.0532 279.6513 0002183  43.0999 317.0161 15.06385329 91012","PERIAPSIS":"545.747","GP_ID":"222543090","BSTAR":"0.00036050000000","OBJECT_ID":"2021-041E","INCLINATION":"53.0532","OBJECT_TYPE":"PAYLOAD","MEAN_ELEMENT_THEORY":"SGP4","ARG_OF_PERICENTER":"43.0999","MEAN_MOTION_DOT":"0.00005090","MEAN_MOTION":"15.06385329","ELEMENT_SET_NO":"999","REV_AT_EPOCH":"9101","DECAY_DATE":null,"LAUNCH_DATE":"2021-05-15","EPHEMERIS_TYPE":"0","SEMIMAJOR_AXIS":"6925.394","EPOCH":"2023-01-09T00:16:25.324608","SITE":"AFETR","NORAD_CAT_ID":"48557","CLASSIFICATION_TYPE":"U","PERIOD":"95.593","TLE_LINE1":"1 48557U 21041E   23009.01140422  .00005090  00000-0  36050-3 0  9996"},{"OBJECT_TYPE":"PAYLOAD","INCLINATION":"53.0499","ELEMENT_SET_NO":"999","MEAN_MOTION":"15.06410756","MEAN_MOTION_DOT":"0.00009996","MEAN_ELEMENT_THEORY":"SGP4","ARG_OF_PERICENTER":"74.4160","NORAD_CAT_ID":"48558","EPOCH":"2023-01-09T17:42:02.126304","SEMIMAJOR_AXIS":"6925.316","EPHEMERIS_TYPE":"0","SITE":"AFETR","DECAY_DATE":null,"LAUNCH_DATE":"2021-05-15","REV_AT_EPOCH":"9152","TLE_LINE1":"1 48558U 21041F   23009.73752461  .00009996  00000-0  68883-3 0  9996","PERIOD":"95.591","CLASSIFICATION_TYPE":"U","APOAPSIS":"548.533","REF_FRAME":"TEME","MEAN_ANOMALY":"285.7045","ECCENTRICITY":"0.00019530","TIME_SYSTEM":"UTC","FILE":"3737611","MEAN_MOTION_DDOT":"0.0000000000000","CENTER_NAME":"EARTH","TLE_LINE2":"2 48558  53.0499 276.4058 0001953  74.4160 285.7045 15.06410756 91527","PERIAPSIS":"545.828","RCS_SIZE":"LARGE","OBJECT_NAME":"STARLINK-2166","COUNTRY_CODE":"US","RA_OF_ASC_NODE":"276.4058","OBJECT_ID":"2021-041F","BSTAR":"0.00068883000000","GP_ID":"222581302"},{"DECAY_DATE":null,"REV_AT_EPOCH":"9156","LAUNCH_DATE":"2021-05-15","EPOCH":"2023-01-09T16:58:12.420480","SEMIMAJOR_AXIS":"6925.384","EPHEMERIS_TYPE":"0","SITE":"AFETR","NORAD_CAT_ID":"48559","CLASSIFICATION_TYPE":"U","PERIOD":"95.593","TLE_LINE1":"1 48559U 21041G   23009.70708820  .00002663  00000-0  19765-3 0  9993","INCLINATION":"53.0557","OBJECT_TYPE":"PAYLOAD","MEAN_ELEMENT_THEORY":"SGP4","ARG_OF_PERICENTER":"76.7164","MEAN_MOTION_DOT":"0.00002663","MEAN_MOTION":"15.06388587","ELEMENT_SET_NO":"999","RA_OF_ASC_NODE":"276.5489","COUNTRY_CODE":"US","OBJECT_NAME":"STARLINK-2167","TLE_LINE2":"2 48559  53.0557 276.5489 0001449  76.7164 283.3987 15.06388587 91560","RCS_SIZE":"LARGE","PERIAPSIS":"546.245","GP_ID":"222581306","BSTAR":"0.00019765000000","OBJECT_ID":"2021-041G","APOAPSIS":"548.252","REF_FRAME":"TEME","MEAN_ANOMALY":"283.3987","MEAN_MOTION_DDOT":"0.0000000000000","CENTER_NAME":"EARTH","FILE":"3737611","ECCENTRICITY":"0.00014490","TIME_SYSTEM":"UTC"},{"MEAN_ELEMENT_THEORY":"SGP4","ARG_OF_PERICENTER":"75.5285","MEAN_MOTION":"15.06408001","MEAN_MOTION_DOT":"0.00004635","ELEMENT_SET_NO":"999","INCLINATION":"53.0524","OBJECT_TYPE":"PAYLOAD","CLASSIFICATION_TYPE":"U","PERIOD":"95.592","TLE_LINE1":"1 48561U 21041J   23009.45651040  .00004635  00000-0  32979-3 0  9992","DECAY_DATE":null,"REV_AT_EPOCH":"9150","LAUNCH_DATE":"2021-05-15","EPOCH":"2023-01-09T10:57:22.498560","SEMIMAJOR_AXIS":"6925.324","EPHEMERIS_TYPE":"0","SITE":"AFETR","NORAD_CAT_ID":"48561","MEAN_MOTION_DDOT":"0.0000000000000","CENTER_NAME":"EARTH","FILE":"3737263","ECCENTRICITY":"0.00014450","TIME_SYSTEM":"UTC","APOAPSIS":"548.190","REF_FRAME":"TEME","MEAN_ANOMALY":"284.5864","GP_ID":"222542840","BSTAR":"0.00032979000000","OBJECT_ID":"2021-041J","OBJECT_NAME":"STARLINK-2186","COUNTRY_CODE":"US","RA_OF_ASC_NODE":"247.9383","TLE_LINE2":"2 48561  53.0524 247.9383 0001445  75.5285 284.5864 15.06408001 91504","RCS_SIZE":"LARGE","PERIAPSIS":"546.188"},{"ELEMENT_SET_NO":"999","MEAN_MOTION_DOT":"0.00001689","MEAN_MOTION":"15.06397989","MEAN_ELEMENT_THEORY":"SGP4","ARG_OF_PERICENTER":"39.9545","OBJECT_TYPE":"PAYLOAD","INCLINATION":"53.0557","TLE_LINE1":"1 48562U 21041K   23009.45001734  .00001689  00000-0  13224-3 0  9990","PERIOD":"95.592","CLASSIFICATION_TYPE":"U","NORAD_CAT_ID":"48562","EPOCH":"2023-01-09T10:48:01.498176","SEMIMAJOR_AXIS":"6925.355","EPHEMERIS_TYPE":"0","SITE":"AFETR","DECAY_DATE":null,"REV_AT_EPOCH":"9108","LAUNCH_DATE":"2021-05-15","ECCENTRICITY":"0.00012180","TIME_SYSTEM":"UTC","FILE":"3737263","MEAN_MOTION_DDOT":"0.0000000000000","CENTER_NAME":"EARTH","REF_FRAME":"TEME","APOAPSIS":"548.063","MEAN_ANOMALY":"320.1534","OBJECT_ID":"2021-041K","BSTAR":"0.00013224000000","GP_ID":"222543591","TLE_LINE2":"2 48562  53.0557 277.6894 0001218  39.9545 320.1534 15.06397989 91085","RCS_SIZE":"LARGE","PERIAPSIS":"546.376","OBJECT_NAME":"STARLINK-2187","COUNTRY_CODE":"US","RA_OF_ASC_NODE":"277.6894"}];
